CTC1_L_00055016-03
1 24362U 24294OJ  26037.47800926  .00000000  00000+0  00000-0 0  9991
2 24362 100.0000 180.0000 0000000   0.0000   0.0000 15.08755970    17
CTC1_L_00055016-04
1 24363U 24717TK  26037.47800926  .00000000  00000+0  00000-0 0  9992
2 24363 100.0000 180.0000 0000000   0.0000  90.0000 15.08755970    17
CTC1_L_00055017-01
1 24364U 25555RP  26037.47800926  .00000000  00000+0  00000-0 0  9994
2 24364 100.0000 192.0000 0000000   0.0000 192.0000 15.08755970    14
CTC1_L_00055017-02
1 24365U 23223LQ  26037.47800926  .00000000  00000+0  00000-0 0  9995
2 24365 100.0000 192.0000 0000000   0.0000 282.0000 15.08755970    15
CTC1_L_00055017-03
1 24366U 22182WI  26037.47800926  .00000000  00000+0  00000-0 0  9999
2 24366 100.0000 192.0000 0000000   0.0000  12.0000 15.08755970    17
CTC1_L_00055017-04
1 24367U 23803JA  26037.47800926  .00000000  00000+0  00000-0 0  9991
2 24367 100.0000 192.0000 0000000   0.0000 102.0000 15.08755970    18
CTC1_L_00055018-01
1 24368U 25097FC  26037.47800926  .00000000  00000+0  00000-0 0  9999
2 24368 100.0000 204.0000 0000000   0.0000 204.0000 15.08755970    16
CTC1_L_00055018-02
1 24369U 25721GY  26037.47800926  .00000000  00000+0  00000-0 0  9994
2 24369 100.0000 204.0000 0000000   0.0000 294.0000 15.08755970    16
CTC1_L_00055018-03
1 24370U 23494WR  26037.47800926  .00000000  00000+0  00000-0 0  9991
2 24370 100.0000 204.0000 0000000   0.0000  24.0000 15.08755970    19
CTC1_L_00055018-04
1 24371U 24020MR  26037.47800926  .00000000  00000+0  00000-0 0  9998
2 24371 100.0000 204.0000 0000000   0.0000 114.0000 15.08755970    10
CTC1_L_00055019-01
1 24372U 23406XL  26037.47800926  .00000000  00000+0  00000-0 0  9996
2 24372 100.0000 216.0000 0000000   0.0000 216.0000 15.08755970    17
CTC1_L_00055019-02
1 24373U 26361GM  26037.47800926  .00000000  00000+0  00000-0 0  9990
2 24373 100.0000 216.0000 0000000   0.0000 306.0000 15.08755970    18
CTC1_L_00055019-03
1 24374U 24672DC  26037.47800926  .00000000  00000+0  00000-0 0  9994
2 24374 100.0000 216.0000 0000000   0.0000  36.0000 15.08755970    19
CTC1_L_00055019-04
1 24375U 23515TL  26037.47800926  .00000000  00000+0  00000-0 0  9990
2 24375 100.0000 216.0000 0000000   0.0000 126.0000 15.08755970    10
CTC1_L_00055020-01
1 24376U 24920DA  26037.47800926  .00000000  00000+0  00000-0 0  9992
2 24376 100.0000 228.0000 0000000   0.0000 228.0000 15.08755970    17
CTC1_L_00055020-02
1 24377U 26896ZT  26037.47800926  .00000000  00000+0  00000-0 0  9997
2 24377 100.0000 228.0000 0000000   0.0000 318.0000 15.08755970    18
CTC1_L_00055020-03
1 24378U 24761FQ  26037.47800926  .00000000  00000+0  00000-0 0  9997
2 24378 100.0000 228.0000 0000000   0.0000  48.0000 15.08755970    19
CTC1_L_00055020-04
1 24379U 25497BT  26037.47800926  .00000000  00000+0  00000-0 0  9995
2 24379 100.0000 228.0000 0000000   0.0000 138.0000 15.08755970    10
CTC1_L_00055021-01
1 24380U 22904MQ  26037.47800926  .00000000  00000+0  00000-0 0  9997
2 24380 100.0000 240.0000 0000000   0.0000 240.0000 15.08755970    10
CTC1_L_00055021-02
1 24381U 22062UV  26037.47800926  .00000000  00000+0  00000-0 0  9993
2 24381 100.0000 240.0000 0000000   0.0000 330.0000 15.08755970    11
CTC1_L_00055021-03
1 24382U 22141LD  26037.47800926  .00000000  00000+0  00000-0 0  9992
2 24382 100.0000 240.0000 0000000   0.0000  60.0000 15.08755970    12
CTC1_L_00055021-04
1 24383U 22012Y   26037.47800926  .00000000  00000+0  00000-0 0  9990
2 24383 100.0000 240.0000 0000000   0.0000 150.0000 15.08755970    13
CTC1_L_00055022-01
1 24384U 24285EZ  26037.47800926  .00000000  00000+0  00000-0 0  9995
2 24384 100.0000 252.0000 0000000   0.0000 252.0000 15.08755970    10
CTC1_L_00055022-02
1 24385U 25841JJ  26037.47800926  .00000000  00000+0  00000-0 0  9995
2 24385 100.0000 252.0000 0000000   0.0000 342.0000 15.08755970    11
CTC1_L_00055022-03
1 24386U 24198EN  26037.47800926  .00000000  00000+0  00000-0 0  9990
2 24386 100.0000 252.0000 0000000   0.0000  72.0000 15.08755970    12
CTC1_L_00055022-04
1 24387U 26794FB  26037.47800926  .00000000  00000+0  00000-0 0  9995
2 24387 100.0000 252.0000 0000000   0.0000 162.0000 15.08755970    13
CTC1_L_00055023-01
1 24388U 26352FN  26037.47800926  .00000000  00000+0  00000-0 0  9996
2 24388 100.0000 264.0000 0000000   0.0000 264.0000 15.08755970    10
CTC1_L_00055023-02
1 24389U 23160WP  26037.47800926  .00000000  00000+0  00000-0 0  9991
2 24389 100.0000 264.0000 0000000   0.0000 354.0000 15.08755970    11
CTC1_L_00055023-03
1 24390U 26391CV  26037.47800926  .00000000  00000+0  00000-0 0  9992
2 24390 100.0000 264.0000 0000000   0.0000  84.0000 15.08755970    13
CTC1_L_00055023-04
1 24391U 24222AI  26037.47800926  .00000000  00000+0  00000-0 0  9994
2 24391 100.0000 264.0000 0000000   0.0000 174.0000 15.08755970    14
CTC1_L_00055024-01
1 24392U 26713AP  26037.47800926  .00000000  00000+0  00000-0 0  9992
2 24392 100.0000 276.0000 0000000   0.0000 276.0000 15.08755970    11
CTC1_L_00055024-02
1 24393U 24209LG  26037.47800926  .00000000  00000+0  00000-0 0  9991
2 24393 100.0000 276.0000 0000000   0.0000   6.0000 15.08755970    13
CTC1_L_00055024-03
1 24394U 22529VR  26037.47800926  .00000000  00000+0  00000-0 0  9995
2 24394 100.0000 276.0000 0000000   0.0000  96.0000 15.08755970    13
CTC1_L_00055024-04
1 24395U 23059CY  26037.47800926  .00000000  00000+0  00000-0 0  9995
2 24395 100.0000 276.0000 0000000   0.0000 186.0000 15.08755970    14
CTC1_L_00055025-01
1 24396U 25871PY  26037.47800926  .00000000  00000+0  00000-0 0  9990
2 24396 100.0000 288.0000 0000000   0.0000 288.0000 15.08755970    11
CTC1_L_00055025-02
1 24397U 23407JD  26037.47800926  .00000000  00000+0  00000-0 0  9994
2 24397 100.0000 288.0000 0000000   0.0000  18.0000 15.08755970    13
CTC1_L_00055025-03
1 24398U 26677EK  26037.47800926  .00000000  00000+0  00000-0 0  9997
2 24398 100.0000 288.0000 0000000   0.0000 108.0000 15.08755970    14
CTC1_L_00055025-04
1 24399U 23210CP  26037.47800926  .00000000  00000+0  00000-0 0  9998
2 24399 100.0000 288.0000 0000000   0.0000 198.0000 15.08755970    14
CTC1_L_00055026-01
1 24400U 26112RG  26037.47800926  .00000000  00000+0  00000-0 0  9995
2 24400 100.0000 300.0000 0000000   0.0000 300.0000 15.08755970    17
CTC1_L_00055026-02
1 24401U 22825L   26037.47800926  .00000000  00000+0  00000-0 0  9993
2 24401 100.0000 300.0000 0000000   0.0000  30.0000 15.08755970    18
CTC1_L_00055026-03
1 24402U 26858QV  26037.47800926  .00000000  00000+0  00000-0 0  9994
2 24402 100.0000 300.0000 0000000   0.0000 120.0000 15.08755970    19
CTC1_L_00055026-04
1 24403U 25133WU  26037.47800926  .00000000  00000+0  00000-0 0  9990
2 24403 100.0000 300.0000 0000000   0.0000 210.0000 15.08755970    10
CTC1_L_00055027-01
1 24404U 25442ZI  26037.47800926  .00000000  00000+0  00000-0 0  9994
2 24404 100.0000 312.0000 0000000   0.0000 312.0000 15.08755970    17
CTC1_L_00055027-02
1 24405U 26008OP  26037.47800926  .00000000  00000+0  00000-0 0  9994
2 24405 100.0000 312.0000 0000000   0.0000  42.0000 15.08755970    18
CTC1_L_00055027-03
1 24406U 22432UJ  26037.47800926  .00000000  00000+0  00000-0 0  9992
2 24406 100.0000 312.0000 0000000   0.0000 132.0000 15.08755970    19
CTC1_L_00055027-04
1 24407U 24310TY  26037.47800926  .00000000  00000+0  00000-0 0  9990
2 24407 100.0000 312.0000 0000000   0.0000 222.0000 15.08755970    10
CTC1_L_00055028-01
1 24408U 25581Y   26037.47800926  .00000000  00000+0  00000-0 0  9992
2 24408 100.0000 324.0000 0000000   0.0000 324.0000 15.08755970    17
CTC1_L_00055028-02
1 24409U 23535PS  26037.47800926  .00000000  00000+0  00000-0 0  9990
2 24409 100.0000 324.0000 0000000   0.0000  54.0000 15.08755970    18
CTC1_L_00055028-03
1 24410U 22485AP  26037.47800926  .00000000  00000+0  00000-0 0  9995
2 24410 100.0000 324.0000 0000000   0.0000 144.0000 15.08755970    10
CTC1_L_00055028-04
1 24411U 25162JU  26037.47800926  .00000000  00000+0  00000-0 0  9991
2 24411 100.0000 324.0000 0000000   0.0000 234.0000 15.08755970    11
CTC1_L_00055029-01
1 24412U 23837OI  26037.47800926  .00000000  00000+0  00000-0 0  9999
2 24412 100.0000 336.0000 0000000   0.0000 336.0000 15.08755970    18
CTC1_L_00055029-02
1 24413U 26432ZA  26037.47800926  .00000000  00000+0  00000-0 0  9994
2 24413 100.0000 336.0000 0000000   0.0000  66.0000 15.08755970    19
CTC1_L_00055029-03
1 24414U 24480FR  26037.47800926  .00000000  00000+0  00000-0 0  9996
2 24414 100.0000 336.0000 0000000   0.0000 156.0000 15.08755970    10
CTC1_L_00055029-04
1 24415U 24396MK  26037.47800926  .00000000  00000+0  00000-0 0  9993
2 24415 100.0000 336.0000 0000000   0.0000 246.0000 15.08755970    11
CTC1_L_00055030-01
1 24416U 24958WM  26037.47800926  .00000000  00000+0  00000-0 0  9998
2 24416 100.0000 348.0000 0000000   0.0000 348.0000 15.08755970    18
CTC1_L_00055030-02
1 24417U 24239DT  26037.47800926  .00000000  00000+0  00000-0 0  9991
2 24417 100.0000 348.0000 0000000   0.0000  78.0000 15.08755970    19
CTC1_L_00055030-03
1 24418U 23021QR  26037.47800926  .00000000  00000+0  00000-0 0  9990
2 24418 100.0000 348.0000 0000000   0.0000 168.0000 15.08755970    10
CTC1_L_00055030-04
1 24419U 26356WB  26037.47800926  .00000000  00000+0  00000-0 0  9995
2 24419 100.0000 348.0000 0000000   0.0000 258.0000 15.08755970    11
